STARLINK-31290          
1 59085U 24041M   26068.01757978 -.00001508  00000+0 -45297-4 0  9990
2 59085  43.0032 300.2318 0001282 262.0097  98.0610 15.27576822114473
FLOCK 4G-18             
1 62680U 25009BZ  26068.19114186  .00011766  00000+0  44319-3 0  9995
2 62680  97.4054 150.5008 0004100 335.7331  24.3715 15.27241676121267
